OBJECT B                
1 51825U 22019B   24331.78525425  .00025304  00000+0  87797-3 0  9990
2 51825  97.4124  41.7594 0012708  31.3120 328.8875 15.29702395152011
